NORAD_CAT_ID,OBJECT_NAME,OBJECT_TYPE,EPOCH,MEAN_MOTION,ECCENTRICITY,INCLINATION,RA_OF_ASC_NODE,ARG_OF_PERICENTER,MEAN_ANOMALY,BSTAR,MEAN_MOTION_DOT,MEAN_MOTION_DDOT,TLE_LINE0,TLE_LINE1,TLE_LINE2,SEMIMAJOR_AXIS,PERIOD,APOGEE,PERIGEE,DECAYED
53408.0,STARLINK-4491,PAYLOAD,2023-11-09 11:05:29,15.08876186,0.000146,53.216,335.4333,84.2107,275.9052,0.00066469,0.00010317,0.0,0 STARLINK-4491,1 53408U 22097W   23313.46215086  .00010317  00000-0  66469-3 0  9990,2 53408  53.2160 335.4333 0001460  84.2107 275.9052 15.08876186 70148,6917.77,95.435,540.645,538.625,0.0
53408.0,STARLINK-4491,PAYLOAD,2023-11-09 19:02:25,15.08859356,0.0001225,53.2166,333.9431,105.2652,254.8476,0.00023534,3.461e-05,0.0,0 STARLINK-4491,1 53408U 22097W   23313.79334864  .00003461  00000-0  23534-3 0  9990,2 53408  53.2166 333.9431 0001225 105.2652 254.8476 15.08859356 69700,6917.821,95.436,540.534,538.839,0.0
53408.0,STARLINK-4491,PAYLOAD,2023-11-10 01:23:58,15.08855964,0.0002174,53.2166,332.7565,87.5195,272.6046,0.00038621,5.866e-05,0.0,0 STARLINK-4491,1 53408U 22097W   23314.05831192  .00005866  00000-0  38621-3 0  9990,2 53408  53.2166 332.7565 0002174  87.5195 272.6046 15.08855964 69749,6917.832,95.437,541.201,538.193,0.0
53408.0,STARLINK-4491,PAYLOAD,2023-11-10 07:45:30,15.08854612,0.0001748,53.2163,331.5655,98.7172,261.4018,0.0001975,2.858e-05,0.0,0 STARLINK-4491,1 53408U 22097W   23314.32326876  .00002858  00000-0  19750-3 0  9998,2 53408  53.2163 331.5655 0001748  98.7172 261.4018 15.08854612 70272,6917.836,95.437,540.91,538.491,0.0
53408.0,STARLINK-4491,PAYLOAD,2023-11-10 18:53:12,15.08846874,0.0001547,53.2163,329.487,90.0026,270.1144,0.00010631,1.405e-05,0.0,0 STARLINK-4491,1 53408U 22097W   23314.78694952  .00001405  00000-0  10631-3 0  9997,2 53408  53.2163 329.4870 0001547  90.0026 270.1144 15.08846874 69857,6917.859,95.437,540.795,538.654,0.0
53408.0,STARLINK-4491,PAYLOAD,2023-11-11 10:47:03,15.08846839,0.0001566,53.2168,326.5114,102.0589,258.0579,0.0001781,2.548e-05,0.0,0 STARLINK-4491,1 53408U 22097W   23315.44934923  .00002548  00000-0  17810-3 0  9991,2 53408  53.2168 326.5114 0001566 102.0589 258.0579 15.08846839 70445,6917.859,95.437,540.808,538.641,0.0
53408.0,STARLINK-4491,PAYLOAD,2023-11-12 10:37:51,15.08842602,0.0001536,53.2162,322.0508,86.9884,273.1283,0.00014718,2.055e-05,0.0,0 STARLINK-4491,1 53408U 22097W   23316.44295263  .00002055  00000-0  14718-3 0  9996,2 53408  53.2162 322.0508 0001536  86.9884 273.1283 15.08842602 70109,6917.872,95.437,540.8,538.675,0.0
53408.0,STARLINK-4491,PAYLOAD,2023-11-12 16:59:23,15.08843502,0.0001547,53.2165,320.8607,88.2526,271.8644,0.00014539,2.027e-05,0.0,0 STARLINK-4491,1 53408U 22097W   23316.70791229  .00002027  00000-0  14539-3 0  9998,2 53408  53.2165 320.8607 0001547  88.2526 271.8644 15.08843502 70632,6917.87,95.437,540.805,538.664,0.0
53408.0,STARLINK-4491,PAYLOAD,2023-11-13 07:17:51,15.08845922,0.0001544,53.216,318.1862,97.9169,262.1998,0.00029703,4.443e-05,0.0,0 STARLINK-4491,1 53408U 22097W   23317.30407078  .00004443  00000-0  29703-3 0  9994,2 53408  53.2160 318.1862 0001544  97.9169 262.1998 15.08845922 70720,6917.862,95.437,540.795,538.659,0.0
53408.0,STARLINK-4491,PAYLOAD,2023-11-13 16:50:10,15.08846615,0.0001466,53.2163,316.4023,87.9096,272.2064,0.00012467,1.697e-05,0.0,0 STARLINK-4491,1 53408U 22097W   23317.70150831  .00001697  00000-0  12467-3 0  9997,2 53408  53.2163 316.4023 0001466  87.9096 272.2064 15.08846615 70292,6917.86,95.437,540.739,538.711,0.0
53408.0,STARLINK-4491,PAYLOAD,2023-11-14 03:57:52,15.0883389,0.0001587,53.2169,314.3204,87.7035,272.4139,-6.1228e-05,-1.262e-05,0.0,0 STARLINK-4491,1 53408U 22097W   23318.16519579 -.00001262  00000-0 -61228-4 0  9996,2 53408  53.2169 314.3204 0001587  87.7035 272.4139 15.08833890 70365,6917.899,95.438,540.862,538.666,0.0
53408.0,STARLINK-4491,PAYLOAD,2023-11-14 10:19:25,15.08838014,0.0001611,53.2183,313.1293,84.0238,276.0937,4.8733e-05,4.88e-06,0.0,0 STARLINK-4491,1 53408U 22097W   23318.43015770  .00000488  00000-0  48733-4 0  9993,2 53408  53.2183 313.1293 0001611  84.0238 276.0937 15.08838014 70896,6917.886,95.438,540.866,538.637,0.0
53408.0,STARLINK-4491,PAYLOAD,2023-11-14 23:02:30,15.0883678,0.0001577,53.2186,310.751,88.8972,271.22,7.0966e-05,8.42e-06,0.0,0 STARLINK-4491,1 53408U 22097W   23318.96007920  .00000842  00000-0  70966-4 0  9996,2 53408  53.2186 310.7510 0001577  88.8972 271.2200 15.08836780 70979,6917.89,95.438,540.846,538.664,0.0
53408.0,STARLINK-4491,PAYLOAD,2023-11-15 03:48:39,15.08840171,0.0001646,53.2174,309.8594,88.1098,272.0083,5.2698e-05,5.51e-06,0.0,0 STARLINK-4491,1 53408U 22097W   23319.15879418  .00000551  00000-0  52698-4 0  9996,2 53408  53.2174 309.8594 0001646  88.1098 272.0083 15.08840171 70513,6917.88,95.438,540.884,538.606,0.0
53408.0,STARLINK-4491,PAYLOAD,2023-11-15 06:59:26,15.08845774,0.0001513,53.2177,309.2649,86.7953,273.3213,5.1062e-05,5.25e-06,0.0,0 STARLINK-4491,1 53408U 22097W   23319.29127395  .00000525  00000-0  51062-4 0  9996,2 53408  53.2177 309.2649 0001513  86.7953 273.3213 15.08845774 71028,6917.863,95.437,540.774,538.681,0.0
53408.0,STARLINK-4491,PAYLOAD,2023-11-15 16:31:44,15.08853863,0.00017,53.2181,307.48,83.8826,276.2359,0.00014926,2.089e-05,0.0,0 STARLINK-4491,1 53408U 22097W   23319.68870634  .00002089  00000-0  14926-3 0  9994,2 53408  53.2181 307.4800 0001700  83.8826 276.2359 15.08853863 70599,6917.838,95.437,540.879,538.527,0.0
53408.0,STARLINK-4491,PAYLOAD,2023-11-15 22:53:16,15.08855274,0.0001742,53.2181,306.2903,84.1668,275.9522,0.00036299,5.496e-05,0.0,0 STARLINK-4491,1 53408U 22097W   23319.95366523  .00005496  00000-0  36299-3 0  9993,2 53408  53.2181 306.2903 0001742  84.1668 275.9522 15.08855274 71120,6917.834,95.437,540.904,538.494,0.0
53408.0,STARLINK-4491,PAYLOAD,2023-11-16 08:25:34,15.08868216,0.000166,53.2185,304.5073,88.2063,271.9119,0.00056027,8.647e-05,0.0,0 STARLINK-4491,1 53408U 22097W   23320.35109751  .00008647  00000-0  56027-3 0  9999,2 53408  53.2185 304.5073 0001660  88.2063 271.9119 15.08868216 71180,6917.794,95.436,540.807,538.511,0.0
53408.0,STARLINK-4491,PAYLOAD,2023-11-16 16:22:30,15.08847677,0.00017,53.2182,303.0198,90.4716,269.6471,1.179e-06,-2.69e-06,0.0,0 STARLINK-4491,1 53408U 22097W   23320.68230234 -.00000269  00000-0  11790-5 0  9999,2 53408  53.2182 303.0198 0001700  90.4716 269.6471 15.08847677 70748,6917.857,95.437,540.898,538.546,0.0
53408.0,STARLINK-4491,PAYLOAD,2023-11-17 08:16:23,15.08829663,0.000184,53.2201,300.0458,100.7027,259.4172,-0.00025945,-4.414e-05,0.0,0 STARLINK-4491,1 53408U 22097W   23321.34471129 -.00004414  00000-0 -25945-3 0  9995,2 53408  53.2201 300.0458 0001840 100.7027 259.4172 15.08829663 70842,6917.912,95.438,541.05,538.504,0.0
53408.0,STARLINK-4491,PAYLOAD,2023-11-17 16:13:19,15.0882969,0.0001881,53.2209,298.5586,97.212,262.9086,-0.00018917,-3.297e-05,0.0,0 STARLINK-4491,1 53408U 22097W   23321.67591670 -.00003297  00000-0 -18917-3 0  9994,2 53408  53.2209 298.5586 0001881  97.2120 262.9086 15.08829690 71385,6917.912,95.438,541.078,538.476,0.0
53408.0,STARLINK-4491,PAYLOAD,2023-11-18 08:07:10,15.08837586,0.0001544,53.2187,295.5842,107.1454,252.9707,-7.6524e-05,-1.506e-05,0.0,0 STARLINK-4491,1 53408U 22097W   23322.33831428 -.00001506  00000-0 -76524-4 0  9996,2 53408  53.2187 295.5842 0001544 107.1454 252.9707 15.08837586 70997,6917.888,95.438,540.821,538.685,0.0
53408.0,STARLINK-4491,PAYLOAD,2023-11-19 04:47:11,15.08836241,0.000141,53.2171,291.7204,102.7321,257.3828,0.0003176,4.77e-05,0.0,0 STARLINK-4491,1 53408U 22097W   23323.19944123  .00004770  00000-0  31760-3 0  9994,2 53408  53.2171 291.7204 0001410 102.7321 257.3828 15.08836241 71616,6917.892,95.438,540.732,538.781,0.0
53408.0,STARLINK-4491,PAYLOAD,2023-11-19 22:16:26,15.08838034,0.000146,53.2169,288.4506,99.4158,260.6999,0.00023249,3.414e-05,0.0,0 STARLINK-4491,1 53408U 22097W   23323.92808259  .00003414  00000-0  23249-3 0  9991,2 53408  53.2169 288.4506 0001460  99.4158 260.6999 15.08838034 71726,6917.886,95.438,540.761,538.741,0.0
53408.0,STARLINK-4491,PAYLOAD,2023-11-20 04:37:58,15.08844771,0.0001377,53.2166,287.2618,98.3969,261.7179,0.00020422,2.964e-05,0.0,0 STARLINK-4491,1 53408U 22097W   23324.19303886  .00002964  00000-0  20422-3 0  9996,2 53408  53.2166 287.2618 0001377  98.3969 261.7179 15.08844771 71276,6917.866,95.437,540.683,538.778,0.0
53408.0,STARLINK-4491,PAYLOAD,2023-11-20 14:10:17,15.08843791,0.0001343,53.2165,285.476,96.3115,263.803,0.00013741,1.9e-05,0.0,0 STARLINK-4491,1 53408U 22097W   23324.59047876  .00001900  00000-0  13741-3 0  9999,2 53408  53.2165 285.4760 0001343  96.3115 263.8030 15.08843791 71828,6917.869,95.437,540.663,538.805,0.0
53408.0,STARLINK-4491,PAYLOAD,2023-11-21 06:04:07,15.08860808,0.0001407,53.2168,282.5011,89.6021,270.5133,0.00027891,4.156e-05,0.0,0 STARLINK-4491,1 53408U 22097W   23325.25286756  .00004156  00000-0  27891-3 0  9992,2 53408  53.2168 282.5011 0001407  89.6021 270.5133 15.08860808 71434,6917.817,95.436,540.655,538.708,0.0
53408.0,STARLINK-4491,PAYLOAD,2023-11-22 02:44:09,15.08839279,0.0001575,53.2178,278.6381,97.6434,262.4737,-7.8837e-05,-1.542e-05,0.0,0 STARLINK-4491,1 53408U 22097W   23326.11399550 -.00001542  00000-0 -78837-4 0  9990,2 53408  53.2178 278.6381 0001575  97.6434 262.4737 15.08839279 71566,6917.883,95.438,540.837,538.658,0.0
53408.0,STARLINK-4491,PAYLOAD,2023-11-22 05:54:55,15.08843408,0.0001567,53.2165,278.0404,91.7314,268.3857,2.9559e-05,1.82e-06,0.0,0 STARLINK-4491,1 53408U 22097W   23326.24647417  .00000182  00000-0  29559-4 0  9996,2 53408  53.2165 278.0404 0001567  91.7314 268.3857 15.08843408 72079,6917.87,95.437,540.819,538.651,0.0
53408.0,STARLINK-4491,PAYLOAD,2023-11-23 04:10:19,15.08816149,0.0001308,53.2168,273.8791,85.1398,274.9743,-0.00051476,-8.465e-05,0.0,0 STARLINK-4491,1 53408U 22097W   23327.17383561 -.00008465  00000-0 -51476-3 0  9992,2 53408  53.2168 273.8791 0001308  85.1398 274.9743 15.08816149 71726,6917.953,95.439,540.723,538.913,0.0
